[{"OBJECT_NAME":"STARLINK-5482","OBJECT_ID":"2023-058AT","EPOCH":"2026-03-09T22:57:33.730560","MEAN_MOTION":15.01264433,"ECCENTRICITY":0.00015676,"INCLINATION":97.6058,"RA_OF_ASC_NODE":70.5185,"ARG_OF_PERICENTER":91.8182,"MEAN_ANOMALY":268.3222,"EPHEMERIS_TYPE":0,"CLASSIFICATION_TYPE":"U","NORAD_CAT_ID":56358,"ELEMENT_SET_NO":999,"REV_AT_EPOCH":15817,"BSTAR":-1.105464e-6,"MEAN_MOTION_DOT":-7.3e-7,"MEAN_MOTION_DDOT":0},{"OBJECT_NAME":"DELTA 1 DEB","OBJECT_ID":"1977-065BE","EPOCH":"2026-03-09T09:09:48.919680","MEAN_MOTION":13.52845319,"ECCENTRICITY":0.06744391,"INCLINATION":28.949,"RA_OF_ASC_NODE":116.2566,"ARG_OF_PERICENTER":133.7592,"MEAN_ANOMALY":232.0825,"EPHEMERIS_TYPE":0,"CLASSIFICATION_TYPE":"U","NORAD_CAT_ID":10227,"ELEMENT_SET_NO":999,"REV_AT_EPOCH":36115,"BSTAR":0.00043535963,"MEAN_MOTION_DOT":1.389e-5,"MEAN_MOTION_DDOT":0}]
